{
    "links": {
        "self": "http://www.neowsapp.com/rest/v1/neo/3736002?api_key=iIulBulltgU6a56xZRHN4H3l9WmuAYTsLGpBGhQ2"
    },
    "id": "3736002",
    "neo_reference_id": "3736002",
    "name": "(2015 XO55)",
    "designation": "2015 XO55",
    "nasa_jpl_url": "http://ssd.jpl.nasa.gov/sbdb.cgi?sstr=3736002",
    "absolute_magnitude_h": 23.3,
    "estimated_diameter": {
        "kilometers": {
            "estimated_diameter_min": 0.058150704,
            "estimated_diameter_max": 0.130028927
        },
        "meters": {
            "estimated_diameter_min": 58.1507039646,
            "estimated_diameter_max": 130.0289270043
        },
        "miles": {
            "estimated_diameter_min": 0.0361331611,
            "estimated_diameter_max": 0.0807962044
        },
        "feet": {
            "estimated_diameter_min": 190.7831555951,
            "estimated_diameter_max": 426.6041048727
        }
    },
    "is_potentially_hazardous_asteroid": false,
    "close_approach_data": [
        {
            "close_approach_date": "2015-12-10",
            "close_approach_date_full": "2015-Dec-10 15:33",
            "epoch_date_close_approach": 1449761580000,
            "relative_velocity": {
                "kilometers_per_second": "1.7605497793",
                "kilometers_per_hour": "6337.9792056223",
                "miles_per_hour": "3938.1738014046"
            },
            "miss_distance": {
                "astronomical": "0.2206537584",
                "lunar": "85.8343120176",
                "kilometers": "33009332.264134608",
                "miles": "20511047.9590012704"
            },
            "orbiting_body": "Earth"
        },
        {
            "close_approach_date": "2021-08-18",
            "close_approach_date_full": "2021-Aug-18 09:59",
            "epoch_date_close_approach": 1629280740000,
            "relative_velocity": {
                "kilometers_per_second": "8.7687270185",
                "kilometers_per_hour": "31567.4172665556",
                "miles_per_hour": "19614.765467655"
            },
            "miss_distance": {
                "astronomical": "0.0940319622",
                "lunar": "36.5784332958",
                "kilometers": "14066981.257040514",
                "miles": "8740816.8360625332"
            },
            "orbiting_body": "Mars"
        }
    ],
    "orbital_data": {
        "orbit_id": "8",
        "orbit_determination_date": "2017-04-06 08:30:11",
        "first_observation_date": "2015-12-04",
        "last_observation_date": "2015-12-30",
        "data_arc_in_days": 26,
        "observations_used": 26,
        "orbit_uncertainty": "6",
        "minimum_orbit_intersection": ".219496",
        "jupiter_tisserand_invariant": "3.839",
        "epoch_osculation": "2459000.5",
        "eccentricity": ".3733569143514353",
        "semi_major_axis": "1.917238079825383",
        "inclination": "2.095999071166238",
        "ascending_node_longitude": "211.2955369681027",
        "orbital_period": "969.6444059789117",
        "perihelion_distance": "1.201423986264707",
        "perihelion_argument": "231.175773125785",
        "aphelion_distance": "2.633052173386059",
        "perihelion_time": "2459312.510451752899",
        "mean_anomaly": "244.1598405163321",
        "mean_motion": ".3712701251925022",
        "equinox": "J2000",
        "orbit_class": {
            "orbit_class_type": "AMO",
            "orbit_class_description": "Near-Earth asteroid orbits similar to that of 1221 Amor",
            "orbit_class_range": "1.017 AU < q (perihelion) < 1.3 AU"
        }
    },
    "is_sentry_object": false
}